STARLINK-6225           
1 57092U 23088AW  26170.49782873 -.00000161  00000+0  36719-5 0  9997
2 57092  43.0003 240.9032 0001010 274.8042  85.2694 15.27579845166071
STARLINK-6229           
1 57093U 23088AX  26170.25170845  .00000177  00000+0  15953-4 0  9994
2 57093  43.0045 242.4942 0001609 297.8776  62.1913 15.27573301166033
STARLINK-6235           
1 57094U 23088AY  26170.25556041 -.00000122  00000+0  51154-5 0  9996
2 57094  43.0058 242.5200 0001885 293.4473  66.6180 15.27578038166035
STARLINK-6132           
1 57101U 23090A   26170.44404123  .00018725  00000+0  69036-3 0  9995
2 57101  43.0049  66.9718 0000448 303.2771  56.8037 15.27479525165897
STARLINK-6111           
1 57102U 23090B   26170.12477576  .00000556  00000+0  29733-4 0  9997
2 57102  43.0051  68.8747 0001787 253.2175 106.8480 15.27577534165845
STARLINK-6130           
1 57104U 23090D   26170.05553684  .00000528  00000+0  28731-4 0  9992
2 57104  43.0058  69.2141 0001470 266.8373  93.2311 15.27577675165822
STARLINK-6097           
1 57105U 23090E   26170.12734961  .00000392  00000+0  23763-4 0  9999
2 57105  43.0028  68.8886 0001355 259.6173 100.4526 15.27576134165841
STARLINK-6118           
1 57106U 23090F   26170.44271443  .00000388  00000+0  23634-4 0  9998
2 57106  43.0063  66.9588 0001398 272.2439  87.8253 15.27579798165891
STARLINK-6131           
1 57107U 23090G   26170.41830084 -.00000433  00000+0 -62075-5 0  9994
2 57107  43.0045  66.7712 0001137 265.5170  94.5552 15.27575212165891
STARLINK-6099           
1 57108U 23090H   26170.43885822 -.00000189  00000+0  26479-5 0  9992
2 57108  43.0061  66.9285 0001678 273.8865  86.1794 15.27576979165896
STARLINK-6139           
1 57109U 23090J   26170.14533651  .00000047  00000+0  11217-4 0  9996
2 57109  43.0027  69.0163 0001295 272.7055  87.3648 15.27580739165847
STARLINK-6134           
1 57110U 23090K   26170.43500183  .00001430  00000+0  61498-4 0  9997
2 57110  43.0055  66.9031 0002029 282.9350  77.1275 15.27578176165897
STARLINK-6140           
1 57111U 23090L   26170.42986279 -.00000028  00000+0  85007-5 0  9997
2 57111  43.0063  66.8592 0001368 267.4204  92.6492 15.27577342165896
STARLINK-6141           
1 57112U 23090M   26170.11963638  .00000156  00000+0  15219-4 0  9996
2 57112  43.0066  68.8310 0001589 265.4966  94.5704 15.27576576165848
STARLINK-6142           
1 57113U 23090N   26170.42215284 -.00000087  00000+0  63764-5 0  9991
2 57113  43.0061  66.7999 0001413 265.1300  94.9391 15.27576486165890
STARLINK-6125           
1 57114U 23090P   26170.42600843 -.00001044  00000+0 -28428-4 0  9993
2 57114  43.0038  66.8361 0001357 280.1782  79.8916 15.27571773165896
STARLINK-6085           
1 57115U 23090Q   26170.38860681  .00029462  00000+0  14471-2 0  9990
2 57115  42.9992  59.8082 0018459 144.0557 216.1536 15.17393190165972
STARLINK-6129           
1 57116U 23090R   26170.08749744  .00001175  00000+0  52194-4 0  9991
2 57116  43.0029  68.5969 0000458 244.0605 116.0200 15.27591885165846
STARLINK-6148           
1 57117U 23090S   26170.41572162 -.00002430  00000+0 -78824-4 0  9992
2 57117  43.0026  66.7541 0001704 269.5273  90.5383 15.27567551165883
STARLINK-6150           
1 57119U 23090U   26170.12863728 -.00002544  00000+0 -82963-4 0  9998
2 57119  43.0103  68.8936 0003002 287.5986  72.4538 15.27560051165841
STARLINK-6147           
1 57120U 23090V   26170.43244898  .00001281  00000+0  56083-4 0  9994
2 57120  43.0060  66.8749 0001271 272.9577  87.1129 15.27577532165891
STARLINK-6152           
1 57121U 23090W   26170.41315982  .00000256  00000+0  18837-4 0  9992
2 57121  43.0018  66.7348 0000869 247.1781 112.8979 15.27576652165703
STARLINK-6149           
1 57122U 23090X   26170.39788691 -.00000007  00000+0  92734-5 0  9995
2 57122  43.0022  67.4690 0001263 251.0719 108.9996 15.27576928165881
STARLINK-6154           
1 57123U 23090Y   26170.44014063  .00000246  00000+0  18488-4 0  9994
2 57123  43.0064  66.9295 0001624 265.9413  94.1253 15.27577624165706
STARLINK-6146           
1 57124U 23090Z   26170.43628562  .00001469  00000+0  62905-4 0  9990
2 57124  43.0063  66.9045 0001787 279.3605  80.7045 15.27572394165890
STARLINK-6100           
1 57125U 23090AA  26170.03083554  .00000075  00000+0  12265-4 0  9999
2 57125  43.0038  50.8941 0001013 268.7419  91.3316 15.27573875165857
STARLINK-6167           
1 57126U 23090AB  26170.40559581  .00000300  00000+0  20410-4 0  9991
2 57126  43.0026  67.5192 0001032 224.0870 135.9900 15.27576861165880
STARLINK-6165           
1 57127U 23090AC  26170.42472771  .00000628  00000+0  32328-4 0  9993
2 57127  43.0058  66.8113 0001251 263.9615  96.1094 15.27590020165709
STARLINK-6163           
1 57128U 23090AD  26170.41701295  .00000548  00000+0  29444-4 0  9995
2 57128  43.0023  66.7550 0000982 260.0848  99.9893 15.27579043165702
STARLINK-6170           
1 57129U 23090AE  26170.07708918  .00000547  00000+0  29416-4 0  9995
2 57129  43.0044  51.2455 0001540 265.4914  94.5761 15.27577656165852
