OBJECT_NAME,OBJECT_ID,EPOCH,MEAN_MOTION,ECCENTRICITY,INCLINATION,RA_OF_ASC_NODE,ARG_OF_PERICENTER,MEAN_ANOMALY,EPHEMERIS_TYPE,CLASSIFICATION_TYPE,NORAD_CAT_ID,ELEMENT_SET_NO,REV_AT_EPOCH,BSTAR,MEAN_MOTION_DOT,MEAN_MOTION_DDOT
STARLINK-6225,2023-088AW,2026-06-19T11:56:52.402272,15.27579845,.00010109,43.0003,240.9032,274.8042,85.2694,0,U,57092,999,16607,.367194E-5,-.161E-5,0
STARLINK-6229,2023-088AX,2026-06-19T06:02:27.610080,15.27573301,.00016091,43.0045,242.4942,297.8776,62.1913,0,U,57093,999,16603,.15952869E-4,.177E-5,0
STARLINK-6235,2023-088AY,2026-06-19T06:08:00.419424,15.27578038,.00018859,43.0058,242.5200,293.4473,66.6180,0,U,57094,999,16603,.5115384E-5,-.122E-5,0
STARLINK-6132,2023-090A,2026-06-19T10:39:25.162272,15.27479525,.00004481,43.0049,66.9718,303.2771,56.8037,0,U,57101,999,16589,.69036277E-3,.18725E-3,0
STARLINK-6111,2023-090B,2026-06-19T02:59:40.625664,15.27577534,.00017871,43.0051,68.8747,253.2175,106.8480,0,U,57102,999,16584,.29732986E-4,.556E-5,0
STARLINK-6130,2023-090D,2026-06-19T01:19:58.382976,15.27577675,.00014703,43.0058,69.2141,266.8373,93.2311,0,U,57104,999,16582,.28731224E-4,.528E-5,0
STARLINK-6097,2023-090E,2026-06-19T03:03:23.006304,15.27576134,.00013559,43.0028,68.8886,259.6173,100.4526,0,U,57105,999,16584,.23762785E-4,.392E-5,0
STARLINK-6118,2023-090F,2026-06-19T10:37:30.526752,15.27579798,.00013981,43.0063,66.9588,272.2439,87.8253,0,U,57106,999,16589,.23633635E-4,.388E-5,0
STARLINK-6131,2023-090G,2026-06-19T10:02:21.192576,15.27575212,.00011378,43.0045,66.7712,265.5170,94.5552,0,U,57107,999,16589,-.6207534E-5,-.433E-5,0
STARLINK-6099,2023-090H,2026-06-19T10:31:57.350208,15.27576979,.0001678,43.0061,66.9285,273.8865,86.1794,0,U,57108,999,16589,.2647895E-5,-.189E-5,0
STARLINK-6139,2023-090J,2026-06-19T03:29:17.074464,15.27580739,.00012952,43.0027,69.0163,272.7055,87.3648,0,U,57109,999,16584,.11216634E-4,.47E-6,0
STARLINK-6134,2023-090K,2026-06-19T10:26:24.158112,15.27578176,.00020295,43.0055,66.9031,282.9350,77.1275,0,U,57110,999,16589,.61498481E-4,.143E-4,0
STARLINK-6140,2023-090L,2026-06-19T10:19:00.145056,15.27577342,.00013681,43.0063,66.8592,267.4204,92.6492,0,U,57111,999,16589,.8500681E-5,-.28E-6,0
STARLINK-6141,2023-090M,2026-06-19T02:52:16.583232,15.27576576,.00015895,43.0066,68.8310,265.4966,94.5704,0,U,57112,999,16584,.15219032E-4,.156E-5,0
STARLINK-6142,2023-090N,2026-06-19T10:07:54.005376,15.27576486,.00014139,43.0061,66.7999,265.1300,94.9391,0,U,57113,999,16589,.6376423E-5,-.87E-6,0
STARLINK-6125,2023-090P,2026-06-19T10:13:27.128352,15.27571773,.00013576,43.0038,66.8361,280.1782,79.8916,0,U,57114,999,16589,-.28428334E-4,-.1044E-4,0
STARLINK-6085,2023-090Q,2026-06-19T09:19:35.628384,15.17393190,.00184593,42.9992,59.8082,144.0557,216.1536,0,U,57115,999,16597,.14471072E-2,.29462E-3,0
STARLINK-6129,2023-090R,2026-06-19T02:05:59.778816,15.27591885,.00004583,43.0029,68.5969,244.0605,116.0200,0,U,57116,999,16584,.5219415E-4,.1175E-4,0
STARLINK-6148,2023-090S,2026-06-19T09:58:38.347968,15.27567551,.00017044,43.0026,66.7541,269.5273,90.5383,0,U,57117,999,16588,-.78824497E-4,-.243E-4,0
STARLINK-6150,2023-090U,2026-06-19T03:05:14.260992,15.27560051,.00030024,43.0103,68.8936,287.5986,72.4538,0,U,57119,999,16584,-.82962884E-4,-.2544E-4,0
STARLINK-6147,2023-090V,2026-06-19T10:22:43.591872,15.27577532,.00012717,43.0060,66.8749,272.9577,87.1129,0,U,57120,999,16589,.56082518E-4,.1281E-4,0
STARLINK-6152,2023-090W,2026-06-19T09:54:57.008448,15.27576652,.00008697,43.0018,66.7348,247.1781,112.8979,0,U,57121,999,16570,.18837029E-4,.256E-5,0
STARLINK-6149,2023-090X,2026-06-19T09:32:57.429024,15.27576928,.00012636,43.0022,67.4690,251.0719,108.9996,0,U,57122,999,16588,.9273425E-5,-.7E-7,0
STARLINK-6154,2023-090Y,2026-06-19T10:33:48.150432,15.27577624,.00016246,43.0064,66.9295,265.9413,94.1253,0,U,57123,999,16570,.18487926E-4,.246E-5,0
STARLINK-6146,2023-090Z,2026-06-19T10:28:15.077568,15.27572394,.00017876,43.0063,66.9045,279.3605,80.7045,0,U,57124,999,16589,.62905099E-4,.1469E-4,0
STARLINK-6100,2023-090AA,2026-06-19T00:44:24.190656,15.27573875,.00010132,43.0038,50.8941,268.7419,91.3316,0,U,57125,999,16585,.12264663E-4,.75E-6,0
STARLINK-6167,2023-090AB,2026-06-19T09:44:03.477984,15.27576861,.00010326,43.0026,67.5192,224.0870,135.9900,0,U,57126,999,16588,.20409961E-4,.3E-5,0
STARLINK-6165,2023-090AC,2026-06-19T10:11:36.474144,15.27590020,.00012516,43.0058,66.8113,263.9615,96.1094,0,U,57127,999,16570,.32328459E-4,.628E-5,0
STARLINK-6163,2023-090AD,2026-06-19T10:00:29.918880,15.27579043,.00009826,43.0023,66.7550,260.0848,99.9893,0,U,57128,999,16570,.29444122E-4,.548E-5,0
STARLINK-6170,2023-090AE,2026-06-19T01:51:00.505152,15.27577656,.00015407,43.0044,51.2455,265.4914,94.5761,0,U,57129,999,16585,.29416123E-4,.547E-5,0
